DECODE 2-LINE ELSETS WITH THE FOLLOWING KEY:
1 AAAAAU 00  0  0 BBBBB.BBBBBBBB  .CCCCCCCC  00000-0  00000-0 0  DDDZ
2 AAAAA EEE.EEEE FFF.FFFF GGGGGGG HHH.HHHH III.IIII JJ.JJJJJJJJKKKKKZ
KEY: A-CATALOGNUM B-EPOCHTIME C-DECAY D-ELSETNUM E-INCLINATION F-RAAN
G-ECCENTRICITY H-ARGPERIGEE I-MNANOM J-MNMOTION K-ORBITNUM Z-CHECKSUM

TO ALL RADIO AMATEURS BT

AO-07
1 07530U 74089B   06320.53708311 -.00000028  00000-0  10000-3 0  7300
2 07530 101.5483 359.5498 0011894 310.2334 049.7698 12.53571810464472
UO-11
1 14781U 84021B   06319.61487428  .00000405  00000-0  61479-4 0  2268
2 14781 098.2049 333.0378 0009751 133.8795 226.3253 14.79484603218156
