Satellite: AO-07
Catalog number: 07530
Epoch time:      06320.53708311
Element set:     730
Inclination:      101.5483 deg
RA of node:       359.5498 deg
Eccentricity:    0.0011894
Arg of perigee:   310.2334 deg
Mean anomaly:     049.7698 deg
Mean motion:   12.53571810 rev/day
Decay rate:       -2.8e-07 rev/day^2
Epoch rev:           46447
Checksum:              298

Satellite: UO-11
Catalog number: 14781
Epoch time:      06319.61487428
Element set:     226
Inclination:      098.2049 deg
RA of node:       333.0378 deg
Eccentricity:    0.0009751
Arg of perigee:   133.8795 deg
Mean anomaly:     226.3253 deg
Mean motion:   14.79484603 rev/day
Decay rate:       4.05e-06 rev/day^2
Epoch rev:           21815
Checksum:              314

